     2.100          NAVIGATION                              RINEX VERSION / TYPE
fic2rin                                 10/22/2016 00:21:30 PGM / RUN BY / DATE
                                                            END OF HEADER
 7 16 10 21  6  0  0.0  .417697243392D-03 -.318323145621D-11  .000000000000D+00
     .520000000000D+02  .775000000000D+02  .439482591928D-08 -.288308255468D+01
     .395439565182D-05  .100544635206D-01  .870600342751D-05  .515362893486D+04
     .453600000000D+06 -.596046447754D-07 -.163374029358D+01 -.149011611938D-06
     .964531910203D+00  .217031250000D+03 -.262070125854D+01 -.788818571745D-08
     .100718481043D-09  .100000000000D+01  .191900000000D+04  .000000000000D+00
     .240000000000D+01  .000000000000D+00 -.111758708954D-07  .520000000000D+02
     .446406000000D+06  .400000000000D+01
 8 16 10 21  6  0  0.0 -.361488200724D-04 -.125055521494D-11  .000000000000D+00
     .260000000000D+02 -.979687500000D+02  .439911181209D-08  .697860012854D+00
    -.520609319210D-05  .185896141920D-02  .669807195663D-05  .515377178383D+04
     .453600000000D+06  .558793544769D-07  .429472200372D+00  .558793544769D-08
     .964924801723D+00  .255312500000D+03 -.101071211439D+01 -.817105464294D-08
    -.234652631367D-09  .100000000000D+01  .191900000000D+04  .000000000000D+00
     .240000000000D+01  .000000000000D+00  .512227416039D-08  .260000000000D+02
     .446406000000D+06  .400000000000D+01
 9 16 10 21  6  0  0.0  .229117926210D-03  .727595761418D-11  .000000000000D+00
     .870000000000D+02  .890625000000D+01  .468555231492D-08  .900596215162D-02
     .266358256340D-06  .620984355919D-03  .881962478161D-05  .515376181602D+04
     .453600000000D+06 -.335276126862D-07 -.271233061895D+01 -.167638063431D-07
     .954734720030D+00  .205000000000D+03  .188255837881D+01 -.809212278368D-08
    -.289297764699D-09  .100000000000D+01  .191900000000D+04  .000000000000D+00
     .240000000000D+01  .000000000000D+00  .139698386192D-08  .870000000000D+02
     .446406000000D+06  .400000000000D+01
11 16 10 21  6  0  0.0 -.667477957904D-03 -.102318153949D-11  .000000000000D+00
     .680000000000D+02 -.680312500000D+02  .560773358461D-08 -.279170949605D+01
    -.336207449436D-05  .168126865756D-01  .915490090847D-05  .515368749046D+04
     .453600000000D+06  .204890966415D-06  .110357570075D+01  .707805156708D-07
     .898105224087D+00  .166125000000D+03  .158866475785D+01 -.827784480546D-08
     .168935608275D-09  .100000000000D+01  .191900000000D+04  .000000000000D+00
     .240000000000D+01  .000000000000D+00 -.121071934700D-07  .680000000000D+02
     .446406000000D+06  .400000000000D+01
12 16 10 21  6  0  0.0  .389325898141D-03  .113686837722D-12  .000000000000D+00
     .750000000000D+02  .409375000000D+01  .408838458334D-08  .280628798088D+01
     .102445483208D-06  .604160362855D-02  .327639281750D-05  .515364086723D+04
     .453600000000D+06 -.931322574615D-08 -.554083060584D+00 -.124797224998D-06
     .990128542485D+00  .329468750000D+03  .784172492595D+00 -.798033241288D-08
    -.117862052285D-10  .100000000000D+01  .191900000000D+04  .000000000000D+00
     .240000000000D+01  .000000000000D+00 -.125728547573D-07  .750000000000D+02
     .446406000000D+06  .400000000000D+01
13 16 10 21  6  0  0.0 -.505195930600D-04 -.204636307899D-11  .000000000000D+00
     .800000000000D+01  .186875000000D+02  .423696220077D-08 -.187603476335D+01
     .104308128357D-05  .401607563253D-02  .936724245548D-05  .515368996239D+04
     .453600000000D+06 -.260770320892D-07 -.258942753712D+01  .130385160446D-06
     .970947578401D+00  .205031250000D+03  .192602254099D+01 -.783711216146D-08
    -.296798077117D-09  .100000000000D+01  .191900000000D+04  .000000000000D+00
     .240000000000D+01  .000000000000D+00 -.111758708954D-07  .800000000000D+01
     .446406000000D+06  .400000000000D+01
14 16 10 21  6  0  0.0 -.411523506045D-04 -.193267624127D-11  .000000000000D+00
     .400000000000D+02  .215625000000D+02  .452840291187D-08 -.530850347385D+00
     .118091702461D-05  .872341368813D-02  .971369445324D-05  .515359553719D+04
     .453600000000D+06 -.428408384323D-07 -.262741061632D+01  .949949026108D-07
     .963463715217D+00  .197625000000D+03 -.194517572573D+01 -.809390857235D-08
    -.303584074067D-09  .100000000000D+01  .191900000000D+04  .000000000000D+00
     .240000000000D+01  .000000000000D+00 -.931322574615D-08  .400000000000D+02
     .446406000000D+06  .400000000000D+01
15 16 10 21  6  0  0.0 -.331585761160D-03 -.125055521494D-11  .000000000000D+00
     .580000000000D+02  .618750000000D+01  .526593363299D-08 -.844287794627D+00
     .396743416786D-06  .863861560356D-02  .844709575176D-05  .515368517113D+04
     .453600000000D+06  .191852450371D-06 -.276849883049D+01  .819563865662D-07
     .930431202000D+00  .196312500000D+03  .517689469673D+00 -.840320717017D-08
    -.300012496725D-09  .100000000000D+01  .191900000000D+04  .000000000000D+00
     .240000000000D+01  .000000000000D+00 -.107102096081D-07  .580000000000D+02
     .446406000000D+06  .400000000000D+01
17 16 10 21  6  0  0.0 -.200681854039D-03  .568434188608D-12  .000000000000D+00
     .840000000000D+02 -.763750000000D+02  .420838958203D-08 -.119352322178D+00
    -.397302210331D-05  .113237593323D-01  .732019543648D-05  .515376390457D+04
     .453600000000D+06 -.931322574615D-07  .484048395701D+00  .875443220139D-07
     .978069051908D+00  .249687500000D+03 -.191794925787D+01 -.819534136886D-08
    -.154649298907D-09  .100000000000D+01  .191900000000D+04  .000000000000D+00
     .340000000000D+01  .000000000000D+00 -.107102096081D-07  .840000000000D+02
     .446406000000D+06  .400000000000D+01
18 16 10 21  6  0  0.0  .568862073123D-03  .341060513165D-11  .000000000000D+00
     .590000000000D+02  .468750000000D+00  .564487798897D-08  .145991014707D+01
    -.160187482834D-06  .172660067910D-01  .678561627865D-05  .515371434784D+04
     .453600000000D+06 -.305473804474D-06  .249496724883D+01 -.301748514175D-06
     .925216994773D+00  .231531250000D+03 -.185468631351D+01 -.870214819369D-08
     .124290891500D-09  .100000000000D+01  .191900000000D+04  .000000000000D+00
     .240000000000D+01  .000000000000D+00 -.111758708954D-07  .590000000000D+02
     .446406000000D+06  .400000000000D+01
19 16 10 21  6  0  0.0 -.521390233189D-03  .568434188608D-12  .000000000000D+00
     .710000000000D+02 -.867812500000D+02  .413552940426D-08  .302476476918D+01
    -.460632145405D-05  .104015192483D-01  .726804137230D-05  .515363953590D+04
     .453600000000D+06 -.335276126862D-07  .532410698734D+00 -.204890966415D-06
     .975204630513D+00  .243687500000D+03  .878124187180D+00 -.782318300983D-08
    -.189293599124D-09  .100000000000D+01  .191900000000D+04  .000000000000D+00
     .240000000000D+01  .000000000000D+00 -.149011611938D-07  .710000000000D+02
     .446406000000D+06  .400000000000D+01
20 16 10 21  6  0  0.0  .441892072558D-03  .193267624127D-11  .000000000000D+00
     .360000000000D+02  .806250000000D+01  .552094425520D-08 -.969739070553D+00
     .612810254097D-06  .472610897850D-02  .660680234432D-05  .515358700943D+04
     .453600000000D+06 -.242143869400D-07  .244336201629D+01  .763684511185D-07
     .926486114243D+00  .234281250000D+03  .146575729897D+01 -.860214402811D-08
     .206794328100D-09  .100000000000D+01  .191900000000D+04  .000000000000D+00
     .240000000000D+01  .000000000000D+00 -.838190317154D-08  .360000000000D+02
     .446406000000D+06  .400000000000D+01
21 16 10 21  6  0  0.0 -.532880891114D-03 -.113686837722D-12  .000000000000D+00
     .590000000000D+02 -.413125000000D+02  .476841290925D-08  .241936618943D+01
    -.224262475967D-05  .233421870507D-01  .102557241917D-04  .515380876160D+04
     .453600000000D+06  .244006514549D-06  .145320793711D+01 -.137835741043D-06
     .937300585463D+00  .161812500000D+03 -.174899557031D+01 -.772710757933D-08
     .268582616115D-09  .100000000000D+01  .191900000000D+04  .000000000000D+00
     .240000000000D+01  .000000000000D+00 -.977888703346D-08  .590000000000D+02
     .446406000000D+06  .400000000000D+01
22 16 10 21  6  0  0.0  .212830025703D-03 -.104591890704D-10  .000000000000D+00
     .920000000000D+02  .628125000000D+01  .561809115890D-08 -.610534365790D+00
     .448897480965D-06  .736472976860D-02  .701658427715D-05  .515368917847D+04
     .453600000000D+06 -.447034835815D-07  .249530819066D+01  .109896063805D-06
     .923174269594D+00  .225343750000D+03 -.185472760583D+01 -.868786188432D-08
     .190007914592D-09  .100000000000D+01  .191900000000D+04  .000000000000D+00
     .240000000000D+01  .000000000000D+00 -.176951289177D-07  .920000000000D+02
     .446406000000D+06  .400000000000D+01
23 16 10 21  6  0  0.0 -.194070395082D-03 -.125055521494D-11  .000000000000D+00
     .750000000000D+02  .112500000000D+02  .488770359247D-08 -.135336408395D+01
     .514090061188D-06  .111430763500D-01  .838562846184D-05  .515359632111D+04
     .453600000000D+06  .227242708206D-06 -.270846758627D+01 -.117346644402D-06
     .945639995324D+00  .204468750000D+03 -.252610537530D+01 -.813783897366D-08
    -.231795369493D-09  .100000000000D+01  .191900000000D+04  .000000000000D+00
     .240000000000D+01  .000000000000D+00 -.200234353542D-07  .750000000000D+02
     .446406000000D+06  .400000000000D+01
24 16 10 21  6  0  0.0 -.249128788710D-04 -.568434188608D-12  .000000000000D+00
     .150000000000D+02  .878437500000D+02  .482270088485D-08 -.191399473868D+01
     .438094139099D-05  .481742352713D-02  .786967575550D-05  .515372181892D+04
     .453600000000D+06  .242143869400D-07 -.168346109452D+01 -.745058059692D-07
     .947614504633D+00  .222562500000D+03  .394508570923D+00 -.816462580372D-08
     .117862052285D-09  .100000000000D+01  .191900000000D+04  .000000000000D+00
     .240000000000D+01  .000000000000D+00  .232830643654D-08  .150000000000D+02
     .446406000000D+06  .400000000000D+01
